GORIZONT 1 [-]          
1 11158U 78118A   22206.45243985 -.00000085  00000+0  00000+0 0  9995
2 11158  11.0910 203.9607 3475369 283.2060  40.6693  1.00302145108671
GORIZONT 2 [-]          
1 11440U 79062A   22206.83224546  .00000062  00000+0  00000+0 0  9996
2 11440   9.1984 301.4013 0002440 225.4919 135.9897  1.00269062123742
GORIZONT 3 [-]          
1 11648U 79105A   22206.90203976  .00000116  00000+0  00000+0 0  9996
2 11648   9.3571 302.8289 0014074 208.6962 167.1961  1.00324481108191
GORIZONT 4 [-]          
1 11841U 80049A   22206.76860971 -.00000041  00000+0  00000+0 0  9996
2 11841  10.5059 308.5753 0001322 157.4359 214.9699  0.98628225219497
GORIZONT 5 [-]          
1 13092U 82020A   22206.59679434 -.00000213  00000+0  00000+0 0  9991
2 13092  11.4946 313.8508 0034377 210.0664 162.0589  0.98534360107583
GORIZONT 6 [-]          
1 13624U 82103A   22206.62293911  .00000102  00000+0  00000+0 0  9996
2 13624  10.4138 313.8811 0003264 167.6892 234.1271  1.00267976106683
GORIZONT 7 [-]          
1 14160U 83066A   22206.62263387 -.00000213  00000+0  00000+0 0  9999
2 14160  12.0670 323.1791 0008102 315.8674  33.0044  0.98349867140756
GORIZONT 8 [-]          
1 14532U 83118A   22206.97066644 -.00000068  00000+0  00000+0 0  9993
2 14532  12.2379 325.0200 0031085 148.3598 214.7203  0.98269846106567
GORIZONT 9 [-]          
1 14940U 84041A   22206.83826229 -.00000218  00000+0  00000+0 0  9997
2 14940  11.4312 323.0713 0004791 197.6672 175.0412  1.00237096107680
GORIZONT 10 [-]         
1 15144U 84078A   22206.57293601  .00000113  00000+0  00000+0 0  9990
2 15144  11.5246 324.0991 0001778 128.5872 271.8855  1.00193832140312
GORIZONT 11 [-]         
1 15484U 85007A   22206.83451267 -.00000086  00000+0  00000+0 0  9993
2 15484  11.7032 326.0672 0005297 146.2278 202.7306  1.00394691138361
GORIZONT 12 [-]         
1 16769U 86044A   22206.83564627 -.00000100  00000+0  00000+0 0  9994
2 16769  12.3134 331.4208 0001985 163.5176 186.2474  1.00196755132998
GORIZONT 13 [-]         
1 17083U 86090A   22206.03487348 -.00000124  00000+0  00000+0 0  9997
2 17083  14.1815 338.5688 0012089 345.3773  10.2877  0.96726742104872
GORIZONT 14 [-]         
1 17969U 87040A   22206.10164337 -.00000164  00000+0  00000+0 0  9998
2 17969  13.1406 330.0000 0032596 170.9804 192.7545  0.97660181105961
GORIZONT 15 [-]         
1 19017U 88028A   22206.84026789 -.00000072  00000+0  00000+0 0  9998
2 19017  14.4624 341.4055 0038246 153.8557 211.2922  0.97828280105593
GORIZONT 16 [-]         
1 19397U 88071A   22205.23348156 -.00000292  00000+0  00000+0 0  9998
2 19397  13.3172 340.1043 0015287  67.5979 296.4902  0.99982224124003
GORIZONT 17 [-]         
1 19765U 89004A   22206.99771490 -.00000146  00000+0  00000+0 0  9997
2 19765  13.8556 343.4249 0024930 130.2477 119.3562  0.99065457121476
GORIZONT 18 [-]         
1 20107U 89052A   22206.37334264 -.00000121  00000+0  00000+0 0  9991
2 20107  13.8974 344.6925 0032564 318.7411  51.2994  0.99398572120276
GORIZONT 19 [-]         
1 20263U 89081A   22206.47070057  .00000105  00000+0  00000+0 0  9995
2 20263  13.6279 343.8865 0003565 176.4133 357.8793  1.00325606120226
GORIZONT 20 [-]         
1 20659U 90054A   22206.83957029 -.00000295  00000+0  00000+0 0  9990
2 20659  14.0590 346.7132 0007253 157.7272 197.6466  1.00285240117423
GORIZONT 21 [-]         
1 20923U 90094A   22206.50156940 -.00000138  00000+0  00000+0 0  9991
2 20923  14.0709 347.4866 0004841 183.9530 208.8810  1.00388634116180
GORIZONT 22 [-]         
1 20953U 90102A   22206.77628334 -.00000297  00000+0  00000+0 0  9990
2 20953  14.0287 347.8512 0003115  43.8872 330.4769  1.00291060116116
GORIZONT 23 [-]         
1 21533U 91046A   22206.77462654 -.00000257  00000+0  00000+0 0  9990
2 21533  14.7811 351.9863 0002079 343.7770  17.6552  0.98910080 32626
GORIZONT 24 [-]         
1 21759U 91074A   22206.86646894 -.00000025  00000+0  00000+0 0  9994
2 21759  14.9320 353.8817 0016887 219.4750 307.1829  0.98442130110955
GORIZONT 25 [-]         
1 21922U 92017A   22206.97642167  .00000055  00000+0  00000+0 0  9997
2 21922  14.4751 353.2213 0030402  82.2864 283.3825  0.99842382110736
GORIZONT 26 [-]         
1 22041U 92043A   22206.17364984 -.00000202  00000+0  00000+0 0  9994
2 22041  14.6420 355.2217 0029347 230.8662 134.6982  0.99246580109359
GORIZONT 27 [-]         
1 22245U 92082A   22203.38382759 -.00000269  00000+0  00000+0 0  9996
2 22245  14.5610 354.8504 0012114  18.3916 160.0159  1.00145950112832
GORIZONT 28 [-]         
1 22880U 93069A   22207.30972907 -.00000246  00000+0  00000+0 0  9998
2 22880  14.6912 358.6711 0035995 129.7751 222.6341  0.99652005104976
GORIZONT 29 [-]         
1 22907U 93072A   22206.10574181  .00000047  00000+0  00000+0 0  9999
2 22907  14.6046 358.1497 0009196 357.0780   0.0932  1.00151425104913
GORIZONT 30 [-]         
1 23108U 94030A   22207.29568382 -.00000276  00000+0  00000+0 0  9990
2 23108  14.6154 359.0492 0003059 127.9273  65.9821  1.00293078103237
GORIZONT 31 [-]         
1 23775U 96005A   22206.37604586 -.00000257  00000+0  00000+0 0  9998
2 23775  14.5128   5.2510 0018073 196.0079 168.2355  0.99888433 96840
GORIZONT 32 [-]         
1 23880U 96034A   22206.58933687  .00000054  00000+0  00000+0 0  9991
2 23880  14.4599   5.7703 0008406   3.0913  14.6661  1.00152462 95785
GORIZONT 33 [-]         
1 26372U 00029A   22206.81264590 -.00000270  00000+0  00000+0 0  9996
2 26372  13.1496  16.9190 0005029  91.7656  89.0203  1.00326590 81155
